NORAD_CAT_ID,OBJECT_NAME,OBJECT_TYPE,EPOCH,MEAN_MOTION,ECCENTRICITY,INCLINATION,RA_OF_ASC_NODE,ARG_OF_PERICENTER,MEAN_ANOMALY,BSTAR,MEAN_MOTION_DOT,MEAN_MOTION_DDOT,TLE_LINE0,TLE_LINE1,TLE_LINE2,SEMIMAJOR_AXIS,PERIOD,APOGEE,PERIGEE,DECAYED
55283.0,STARLINK-5317,PAYLOAD,2024-05-28 05:23:47,14.98335892,0.0003009,70.0,244.4631,263.9926,96.089,9.2198e-05,1.007e-05,0.0,0 STARLINK-5317,1 55283U 23010Q   24149.22485905  .00001007  00000-0  92198-4 0  9995,2 55283  70.0000 244.4631 0003009 263.9926  96.0890 14.98335892 75045,6950.175,96.107,574.131,569.948,0.0
55283.0,STARLINK-5317,PAYLOAD,2024-05-28 13:24:28,14.98335603,0.000301,70.0,243.6212,264.6606,95.421,7.8006e-05,8.38e-06,0.0,0 STARLINK-5317,1 55283U 23010Q   24149.55865820  .00000838  00000-0  78006-4 0  9992,2 55283  70.0000 243.6212 0003010 264.6606  95.4210 14.98335603 75393,6950.176,96.107,574.133,569.949,0.0
55283.0,STARLINK-5317,PAYLOAD,2024-05-28 16:36:43,14.98337819,0.0002995,70.0001,243.2846,265.6336,94.4481,0.0001003,1.104e-05,0.0,0 STARLINK-5317,1 55283U 23010Q   24149.69217569  .00001104  00000-0  10030-3 0  9997,2 55283  70.0001 243.2846 0002995 265.6336  94.4481 14.98337819 75418,6950.169,96.106,574.115,569.952,0.0
55283.0,STARLINK-5317,PAYLOAD,2024-05-29 13:26:29,14.9832915,0.0002878,70.0005,241.0969,265.8095,94.2735,2.7456e-05,2.35e-06,0.0,0 STARLINK-5317,1 55283U 23010Q   24150.56006143  .00000235  00000-0  27456-4 0  9994,2 55283  70.0005 241.0969 0002878 265.8095  94.2735 14.98329150 75248,6950.196,96.107,574.061,570.06,0.0
55283.0,STARLINK-5317,PAYLOAD,2024-05-29 16:38:45,14.9833007,0.0002879,70.0005,240.7601,264.4236,95.6595,3.2074e-05,2.9e-06,0.0,0 STARLINK-5317,1 55283U 23010Q   24150.69358049  .00000290  00000-0  32074-4 0  9996,2 55283  70.0005 240.7601 0002879 264.4236  95.6595 14.98330070 75567,6950.193,96.107,574.059,570.057,0.0
55283.0,STARLINK-5317,PAYLOAD,2024-05-30 05:27:49,14.98336605,0.0002923,70.0005,239.4137,264.3376,95.745,5.4456e-05,5.57e-06,0.0,0 STARLINK-5317,1 55283U 23010Q   24151.22765491  .00000557  00000-0  54456-4 0  9993,2 55283  70.0005 239.4137 0002923 264.3376  95.7450 14.98336605 75347,6950.172,96.107,574.069,570.006,0.0
55283.0,STARLINK-5317,PAYLOAD,2024-05-30 13:28:29,14.98337194,0.0002946,70.0003,238.5722,262.6886,97.3938,5.5744e-05,5.72e-06,0.0,0 STARLINK-5317,1 55283U 23010Q   24151.56145350  .00000572  00000-0  55744-4 0  9994,2 55283  70.0003 238.5722 0002946 262.6886  97.3938 14.98337194 75698,6950.171,96.107,574.083,569.988,0.0
55283.0,STARLINK-5317,PAYLOAD,2024-05-30 15:04:37,14.98337471,0.0002949,70.0003,238.4038,263.0407,97.0417,5.7397e-05,5.92e-06,0.0,0 STARLINK-5317,1 55283U 23010Q   24151.62821301  .00000592  00000-0  57397-4 0  9996,2 55283  70.0003 238.4038 0002949 263.0407  97.0417 14.98337471 75703,6950.17,96.107,574.084,569.985,0.0
55283.0,STARLINK-5317,PAYLOAD,2024-05-31 05:29:50,14.98329216,0.0002926,70.0002,236.8892,262.37,97.7127,6.9755e-05,7.39e-06,0.0,0 STARLINK-5317,1 55283U 23010Q   24152.22905679  .00000739  00000-0  69755-4 0  9998,2 55283  70.0002 236.8892 0002926 262.3700  97.7127 14.98329216 75494,6950.195,96.107,574.094,570.027,0.0
55283.0,STARLINK-5317,PAYLOAD,2024-05-31 13:30:30,14.9832926,0.000293,70.0001,236.0475,261.9605,98.1221,6.2104e-05,6.48e-06,0.0,0 STARLINK-5317,1 55283U 23010Q   24152.56285719  .00000648  00000-0  62104-4 0  9991,2 55283  70.0001 236.0475 0002930 261.9605  98.1221 14.98329260 75844,6950.195,96.107,574.097,570.024,0.0
55283.0,STARLINK-5317,PAYLOAD,2024-05-31 15:06:38,14.98329464,0.0002933,70.0,235.8792,262.3203,97.7623,6.2263e-05,6.5e-06,0.0,0 STARLINK-5317,1 55283U 23010Q   24152.62961709  .00000650  00000-0  62263-4 0  9997,2 55283  70.0000 235.8792 0002933 262.3203  97.7623 14.98329464 75852,6950.195,96.107,574.098,570.021,0.0
55283.0,STARLINK-5317,PAYLOAD,2024-06-01 05:31:51,14.98331644,0.0003267,69.9987,234.3617,270.5028,89.5757,-1.4151e-05,-2.62e-06,0.0,0 STARLINK-5317,1 55283U 23010Q   24153.23045720 -.00000262  00000-0 -14151-4 0  9995,2 55283  69.9987 234.3617 0003267 270.5028  89.5757 14.98331644 75647,6950.188,96.107,574.323,569.782,0.0
55283.0,STARLINK-5317,PAYLOAD,2024-06-01 13:32:31,14.98332178,0.000317,69.999,233.5208,269.7766,90.303,1.5153e-05,8.8e-07,0.0,0 STARLINK-5317,1 55283U 23010Q   24153.56425633  .00000088  00000-0  15153-4 0  9993,2 55283  69.9990 233.5208 0003170 269.7766  90.3030 14.98332178 75995,6950.186,96.107,574.254,569.848,0.0
55283.0,STARLINK-5317,PAYLOAD,2024-06-02 05:33:52,14.98320626,0.0003201,69.999,231.8377,269.7148,90.3644,0.00021765,2.504e-05,0.0,0 STARLINK-5317,1 55283U 23010Q   24154.23185887  .00002504  00000-0  21765-3 0  9992,2 55283  69.9990 231.8377 0003201 269.7148  90.3644 14.98320626 75796,6950.222,96.108,574.312,569.862,0.0
55283.0,STARLINK-5317,PAYLOAD,2024-06-02 11:58:24,14.98330255,0.0003022,69.9994,231.1644,267.6127,92.4686,0.00010937,1.212e-05,0.0,0 STARLINK-5317,1 55283U 23010Q   24154.49889604  .00001212  00000-0  10937-3 0  9992,2 55283  69.9994 231.1644 0003022 267.6127  92.4686 14.98330255 76132,6950.192,96.107,574.157,569.957,0.0
55283.0,STARLINK-5317,PAYLOAD,2024-06-03 12:00:25,14.98333788,0.0003194,69.9992,228.64,271.317,88.7623,9.5114e-05,1.042e-05,0.0,0 STARLINK-5317,1 55283U 23010Q   24155.50029486  .00001042  00000-0  95114-4 0  9991,2 55283  69.9992 228.6400 0003194 271.3170  88.7623 14.98333788 75986,6950.181,96.107,574.266,569.826,0.0
55283.0,STARLINK-5317,PAYLOAD,2024-06-03 21:37:13,14.98334264,0.0003184,69.9992,227.6299,270.8918,89.1876,3.95e-05,3.78e-06,0.0,0 STARLINK-5317,1 55283U 23010Q   24155.90085494  .00000378  00000-0  39500-4 0  9994,2 55283  69.9992 227.6299 0003184 270.8918  89.1876 14.98334264 76340,6950.18,96.107,574.258,569.832,0.0
55283.0,STARLINK-5317,PAYLOAD,2024-06-04 10:26:18,14.98332052,0.0003128,69.9993,226.2835,270.6531,89.427,4.5306e-05,4.48e-06,0.0,0 STARLINK-5317,1 55283U 23010Q   24156.43493635  .00000448  00000-0  45306-4 0  9992,2 55283  69.9993 226.2835 0003128 270.6531  89.4270 14.98332052 76422,6950.187,96.107,574.226,569.878,0.0
55283.0,STARLINK-5317,PAYLOAD,2024-06-04 15:14:42,14.98334247,0.0002759,69.9994,225.7789,264.9636,95.1208,0.00011082,1.23e-05,0.0,0 STARLINK-5317,1 55283U 23010Q   24156.63521340  .00001230  00000-0  11082-3 0  9992,2 55283  69.9994 225.7789 0002759 264.9636  95.1208 14.98334247 76159,6950.18,96.107,573.962,570.127,0.0
55283.0,STARLINK-5317,PAYLOAD,2024-06-04 21:39:14,14.9835283,0.0003143,69.9998,225.1047,273.6934,86.3866,-0.00030461,-3.728e-05,0.0,0 STARLINK-5317,1 55283U 23010Q   24156.90224721 -.00003728  00000-0 -30461-3 0  9993,2 55283  69.9998 225.1047 0003143 273.6934  86.3866 14.98352830 76497,6950.122,96.106,574.172,569.803,0.0
55283.0,STARLINK-5317,PAYLOAD,2024-06-05 12:04:27,14.98332993,0.000305,69.9993,223.5907,269.2746,90.8063,3.1522e-05,2.83e-06,0.0,0 STARLINK-5317,1 55283U 23010Q   24157.50309410  .00000283  00000-0  31522-4 0  9990,2 55283  69.9993 223.5907 0003050 269.2746  90.8063 14.98332993 76585,6950.184,96.107,574.168,569.929,0.0
55283.0,STARLINK-5317,PAYLOAD,2024-06-06 05:41:56,14.98327857,0.0003024,69.9993,221.7391,268.54,91.5413,2.1047e-05,1.58e-06,0.0,0 STARLINK-5317,1 55283U 23010Q   24158.23745763  .00000158  00000-0  21047-4 0  9998,2 55283  69.9993 221.7391 0003024 268.5400  91.5413 14.98327857 76391,6950.2,96.107,574.166,569.963,0.0
55283.0,STARLINK-5317,PAYLOAD,2024-06-06 12:06:28,14.98327989,0.0003095,69.9992,221.0657,269.5517,90.5287,-1.2218e-05,-2.39e-06,0.0,0 STARLINK-5317,1 55283U 23010Q   24158.50449873 -.00000239  00000-0 -12218-4 0  9993,2 55283  69.9992 221.0657 0003095 269.5517  90.5287 14.98327989 76738,6950.199,96.107,574.215,569.913,0.0
55283.0,STARLINK-5317,PAYLOAD,2024-06-07 08:56:13,14.98330739,0.0003178,69.999,218.8776,270.2043,89.8752,5.7025e-05,5.87e-06,0.0,0 STARLINK-5317,1 55283U 23010Q   24159.37237563  .00000587  00000-0  57025-4 0  9999,2 55283  69.9990 218.8776 0003178 270.2043  89.8752 14.98330739 76563,6950.191,96.107,574.264,569.847,0.0
55283.0,STARLINK-5317,PAYLOAD,2024-06-07 21:45:17,14.98334606,0.0003232,69.9987,217.5296,269.233,90.8459,0.00012579,1.408e-05,0.0,0 STARLINK-5317,1 55283U 23010Q   24159.90645054  .00001408  00000-0  12579-3 0  9993,2 55283  69.9987 217.5296 0003232 269.2330  90.8459 14.98334606 76945,6950.179,96.107,574.29,569.797,0.0
55283.0,STARLINK-5317,PAYLOAD,2024-06-08 12:10:29,14.98338647,0.000328,69.9986,216.0153,269.9655,90.1128,0.00019204,2.2e-05,0.0,0 STARLINK-5317,1 55283U 23010Q   24160.50728551  .00002200  00000-0  19204-3 0  9998,2 55283  69.9986 216.0153 0003280 269.9655  90.1128 14.98338647 77036,6950.166,96.106,574.311,569.751,0.0
55283.0,STARLINK-5317,PAYLOAD,2024-06-09 05:47:59,14.98326297,0.0003237,69.9985,214.1638,269.9343,90.1445,-6.358e-05,-8.52e-06,0.0,0 STARLINK-5317,1 55283U 23010Q   24161.24165943 -.00000852  00000-0 -63580-4 0  9990,2 55283  69.9985 214.1638 0003237 269.9343  90.1445 14.98326297 76846,6950.204,96.107,574.319,569.82,0.0
55283.0,STARLINK-5317,PAYLOAD,2024-06-09 12:12:31,14.98327311,0.0003228,69.9985,213.4905,270.065,90.0139,-5.5792e-05,-7.59e-06,0.0,0 STARLINK-5317,1 55283U 23010Q   24161.50869854 -.00000759  00000-0 -55792-4 0  9993,2 55283  69.9985 213.4905 0003228 270.0650  90.0139 14.98327311 77184,6950.201,96.107,574.31,569.823,0.0
55283.0,STARLINK-5317,PAYLOAD,2024-06-09 20:13:11,14.98329455,0.000321,69.9986,212.6489,270.4949,89.5842,-3.3089e-06,-1.33e-06,0.0,0 STARLINK-5317,1 55283U 23010Q   24161.84249616 -.00000133  00000-0 -33089-5 0  9990,2 55283  69.9986 212.6489 0003210 270.4949  89.5842 14.98329455 77230,6950.195,96.107,574.291,569.829,0.0
55283.0,STARLINK-5317,PAYLOAD,2024-06-10 05:50:03,14.98291901,0.0003624,69.9968,211.6356,271.2351,88.8393,-0.00047699,-5.774e-05,0.0,0 STARLINK-5317,1 55283U 23010Q   24162.24309445 -.00005774  00000-0 -47699-3 0  9998,2 55283  69.9968 211.6356 0003624 271.2351  88.8393 14.98291901 76996,6950.311,96.109,574.695,569.657,0.0
